OPTICUBE 04             
1 41851U 16067D   19209.85730680 -.00000442  00000-0 -33318-4 0  9991
2 41851  97.9177 307.9572 0007693 249.1010 110.9388 14.96813968147924
AEROCUBE 8D             
1 41852U 16067E   19210.19671611 -.00000120  00000-0 -51727-5 0  9997
2 41852  97.9185 308.1258 0008537 247.2998 112.7321 14.96727377147958
AEROCUBE 8C             
1 41853U 16067F   19209.81948391  .00000642  00000-0  61539-4 0  9995
2 41853  97.9188 307.6766 0008545 248.3915 111.6396 14.96693633147890
PROMETHEUS 2-1          
1 41854U 16067G   19209.84777858 -.00000333  00000-0 -23656-4 0  9994
2 41854  97.9200 307.8581 0008880 250.0943 109.9321 14.96920772147903
PROMETHEUS 2-3          
1 41855U 16067H   19209.84998034 -.00000380  00000-0 -27792-4 0  9993
2 41855  97.9201 307.8778 0009138 250.5173 109.5061 14.96924927147903
INS-1B                  
1 41954U 17008G   19209.74528271  .00000684  00000-0  31156-4 0  9994
2 41954  97.3975 274.2584 0009471  15.6921 344.4608 15.24008257135903
BGUSAT                  
1 41999U 17008BD  19209.73771843  .00001163  00000-0  47728-4 0  9992
2 41999  97.4053 276.7893 0008809  30.0668 330.1074 15.26213605135404
DIDO-2                  
1 42000U 17008BE  19209.86721919  .00000462  00000-0  22040-4 0  9990
2 42000  97.3988 274.9282 0009327  33.4634 326.7191 15.23939779135328
PEASSS                  
1 42015U 17008BV  19210.13359433  .00000611  00000-0  27405-4 0  9992
2 42015  97.3996 276.2101 0007337  40.2521 319.9259 15.24915443135915
AL-FARABI 1             
1 42016U 17008BW  19210.18109320  .00000782  00000-0  33623-4 0  9994
2 42016  97.4012 276.8444 0007134  39.5545 320.6213 15.25563770136074
NAYIF-1 (EO-88)         
1 42017U 17008BX  19209.77418059  .00000804  00000-0  34486-4 0  9993
2 42017  97.4009 276.4520 0007168  41.2804 318.8975 15.25596776136039
ALTAIR PATHFINDER       
1 42711U 98067LS  19209.89864405  .00032317  00000-0  14938-3 0  9994
2 42711  51.6339  80.8592 0001171 279.6057  80.4813 15.83197835125453
NSIGHT                  
1 42726U 98067MF  19209.88834657  .00014193  00000-0  10801-3 0  9992
2 42726  51.6363 102.9139 0003727 339.9650  20.1201 15.72573283124147
UCLSAT                  
1 42765U 17036A   19210.14726136  .00000642  00000-0  30394-4 0  9999
2 42765  97.3483 267.2878 0013274  88.4445 271.8312 15.22795455116625
LITUANICASAT-2          
1 42768U 17036D   19209.73012798  .00001204  00000-0  54186-4 0  9997
2 42768  97.3520 266.5036 0016870  81.0786 279.2360 15.22885391116400
AALTO-1                 
1 42775U 17036L   19209.84992316  .00000425  00000-0  21970-4 0  9999
2 42775  97.3466 265.6528 0015721  80.9725 279.3290 15.21373613116319
URSA MAIOR              
1 42776U 17036M   19210.13599831  .00000456  00000-0  23235-4 0  9999
2 42776  97.3476 266.0927 0015539  80.0525 280.2464 15.21509370116365
COMPASS 2               
1 42777U 17036N   19210.14024952  .00000909  00000-0  41585-4 0  9999
2 42777  97.3517 267.3692 0014285  80.9324 279.3529 15.22964667116421
DIAMOND RED             
1 42783U 17036U   19209.87837018  .00000539  00000-0  26365-4 0  9997
2 42783  97.3484 266.5941 0013954  90.2008 270.0827 15.22244611116366
PEGASUS                 
1 42784U 17036V   19209.84970656  .00000629  00000-0  30037-4 0  9992
2 42784  97.3487 266.8047 0013829  89.8136 270.4685 15.22542119116378
DIAMOND GREEN           
1 42785U 17036W   19209.87715719  .00000511  00000-0  25147-4 0  9999
2 42785  97.3485 266.6181 0013860  90.7285 269.5539 15.22244644116431
DIAMOND BLUE            
1 42786U 17036X   19209.67911542  .00000546  00000-0  26697-4 0  9999
2 42786  97.3485 266.4224 0013699  91.5937 268.6868 15.22242403116404
NUDTSAT                 
1 42787U 17036Y   19209.95339444  .00001168  00000-0  51725-4 0  9997
2 42787  97.3517 267.6494 0012915  80.9516 279.3172 15.23532127116276
SUCHAI                  
1 42788U 17036Z   19209.71439705  .00000769  00000-0  35645-4 0  9992
2 42788  97.3492 266.9982 0013403  89.5581 270.7192 15.22965900116447
SKCUBE                  
1 42789U 17036AA  19209.73281688  .00000704  00000-0  32974-4 0  9991
2 42789  97.3488 266.9515 0013261  89.5238 270.7519 15.22862318116369
VZLUSAT-1               
1 42790U 17036AB  19209.87460806  .00000934  00000-0  41946-4 0  9993
2 42790  97.3504 267.5751 0012840  88.3248 271.9459 15.23524237116417
ROBUSTA-1B              
1 42792U 17036AD  19209.85640635  .00000750  00000-0  34741-4 0  9994
2 42792  97.3489 267.2299 0012851  89.7923 270.4787 15.23031429116405
CICERO 6                
1 42793U 17036AE  19210.12403261  .00000477  00000-0  23463-4 0  9994
2 42793  97.3471 267.2457 0012085  90.5025 269.7596 15.22614707116500
D-SAT                   
1 42794U 17036AF  19209.80293262  .00000175  00000-0  20648-4 0  9993
2 42794  97.5366 252.7336 0126727   8.7075 351.6301 14.91111714114313
CORVUS BC2              
1 42846U 17042X   19209.65088620  .00000244  00000-0  29353-4 0  9990
2 42846  97.5614 102.0518 0008114 284.8971  75.1350 14.91983916110978
CORVUS BC1              
1 42847U 17042Y   19209.93675266  .00000009  00000-0  61807-5 0  9990
2 42847  97.5614 102.4390 0007742 283.2760  76.7595 14.92084332111015
MIRATA                  
1 43015U 17073C   19209.73646982  .00000935  00000-0  77792-4 0  9990
2 43015  97.7184 129.3889 0256182  27.6030 333.8518 14.79030283 91214
MAKERSAT 0              
1 43016U 17073D   19209.75730875  .00000653  00000-0  55899-4 0  9999
2 43016  97.7216 129.6102 0258335  27.9480 333.5333 14.78770370 91204
ASTERIA                 
1 43020U 98067NH  19210.12108925  .00017544  00000-0  13702-3 0  9997
2 43020  51.6425 112.9561 0001040 282.6347  77.4535 15.71756080 96215
DELLINGR (RBLE)         
1 43021U 98067NJ  19210.17412760  .00004810  00000-0  56469-4 0  9998
2 43021  51.6383 127.4531 0001354 254.0015 106.0830 15.63579298 96021
AEROCUBE 7B (OCSD B)    
1 43042U 17071F   19209.89913360  .00001543  00000-0  46046-4 0  9996
2 43042  51.6383 216.3236 0004262 305.3683  54.6903 15.41351959 92287
AEROCUBE 7C (OCSD C)    
1 43043U 17071G   19210.15845363  .00001521  00000-0  45538-4 0  9996
2 43043  51.6384 215.0692 0004528 310.7865  49.2727 15.41355099 92292
CHEFSAT                 
1 43044U 17071H   19209.62531937  .00001730  00000-0  46329-4 0  9997
2 43044  51.6389 211.6381 0004422 307.9610  52.0976 15.44079036 92299
ASGARDIA 1              
1 43049U 17071N   19209.58851892  .00001466  00000-0  44037-4 0  9992
2 43049  51.6391 217.2965 0002193 332.6840  27.4030 15.41473868 92217
ISARA                   
1 43050U 17071P   19209.45964521  .00002790  00000-0  70198-4 0  9992
2 43050  51.6366 213.4854 0002117 329.9551  30.1313 15.43591723 92252
PROPCUBE 2 (FAUNA)      
1 43052U 17071R   19209.39246015  .00001555  00000-0  45720-4 0  9999
2 43052  51.6390 217.5058 0002100 328.3936  31.6923 15.41760198 92181
CORVUS BC3              
1 43118U 18004H   19209.88475944  .00000410  00000-0  20537-4 0  9996
2 43118  97.4843 277.1057 0012084 108.6679 251.5871 15.22880910 85597
MICROMAS-2A             
1 43131U 18004W   19209.72567825  .00000984  00000-0  43311-4 0  9995
2 43131  97.4870 277.7267 0011049 110.2551 249.9875 15.24200982 85614
SPACEBEE-4              
1 43139U 18004AE  19210.18365499  .00001431  00000-0  60130-4 0  9994
2 43139  97.4889 278.7250 0010518 111.0964 249.1399 15.25060743 85705
SPACEBEE-3              
1 43140U 18004AF  19210.14809492  .00001795  00000-0  73465-4 0  9996
2 43140  97.4900 278.9682 0010404 110.9574 249.2778 15.25606625 85720
SPACEBEE-2              
1 43141U 18004AG  19209.85137881  .00001905  00000-0  77363-4 0  9993
2 43141  97.4906 278.7647 0010302 111.8054 248.4281 15.25789788 85683
SPACEBEE-1              
1 43142U 18004AH  19209.87810306  .00002094  00000-0  84262-4 0  9992
2 43142  97.4910 278.9019 0010291 111.7124 248.5211 15.25998177 85686
CICERO 7                
1 43143U 18004AJ  19209.81130511  .00000872  00000-0  38616-4 0  9994
2 43143  97.4856 278.0271 0009103 117.1646 243.0520 15.24325426 85645
GOMX-4B                 
1 43196U 18015E   19209.95419360  .00000343  00000-0  17076-4 0  9991
2 43196  97.3955 336.9378 0018955 162.1232 198.0666 15.23972327 82475
GOMX-4A                 
1 43197U 18015F   19209.95493596  .00000254  00000-0  13379-4 0  9998
2 43197  97.3967 336.9675 0019602 161.8340 316.3598 15.24065345 82489
1KUNS-PF                
1 43466U 98067NP  19210.16207906  .00012309  00000-0  11707-3 0  9991
2 43466  51.6366 128.8364 0000437  64.8544 295.2498 15.67286622 69266
UBAKUSAT                
1 43467U 98067NQ  19209.36973736  .00007362  00000-0  83813-4 0  9994
2 43467  51.6367 137.8000 0001568 203.4146 156.6777 15.63444059 69086
BATSU-CS1 (IRAZU)       
1 43468U 98067NR  19209.81794724  .00019782  00000-0  16155-3 0  9996
2 43468  51.6358 126.5035 0000746  75.6388 284.4692 15.70586257169255
CUBERRT                 
1 43546U 98067NU  19209.79760576  .00004401  00000-0  47999-4 0  9991
2 43546  51.6380 136.1561 0003464 295.3521  64.7116 15.65762475 59270
TEMPEST-D               
1 43547U 98067NV  19209.87787578  .00002435  00000-0  38113-4 0  9995
2 43547  51.6385 144.9469 0004924 278.4429  81.6005 15.58259131 58840
RAINCUBE                
1 43548U 98067NW  19210.10319644  .00007901  00000-0  94274-4 0  9992
2 43548  51.6364 138.9320 0004475 292.7702  67.2819 15.62091870 59394
HALOSAT                 
1 43549U 98067NX  19209.78872458  .00007761  00000-0  93061-4 0  9999
2 43549  51.6371 140.5966 0004567 295.5530  64.4992 15.61993837 58900
ENDUROSAT ONE           
1 43551U 98067NZ  19209.19400537  .00009245  00000-0  10276-3 0  9997
2 43551  51.6367 141.1268 0004724 302.4827  57.5710 15.63692928 59251
EQUISAT                 
1 43552U 98067PA  19210.16626759  .00007305  00000-0  86804-4 0  9999
2 43552  51.6383 137.8954 0005170 303.6335  56.4165 15.62338369 59344
